{"epoch":1784762836,"count":18316,"objects":[{"id":"26958","name":"PROBA 1","type":"PAYLOAD","l1":"1 26958U 01049B   26203.57990242  .00002184  00000-0  14315-3 0  9997","l2":"2 26958  97.9606 213.3518 0054924   4.8242 355.3503 15.07634542348956"},{"id":"27844","name":"CUTE-1","type":"PAYLOAD","l1":"1 27844U 03031E   26203.02043421  .00000248  00000-0  12599-3 0  9994","l2":"2 27844  98.6746 211.1424 0010865  85.1990 275.0430 14.24354732196635"},{"id":"27848","name":"CUBESAT XI 4","type":"PAYLOAD","l1":"1 27848U 03031J   26202.46414799  .00000171  00000-0  94004-4 0  9992","l2":"2 27848  98.6777 210.2780 0010700 103.0346 257.2027 14.23636890196250"},{"id":"35684","name":"APRIZESAT 4","type":"PAYLOAD","l1":"1 35684U 09041D   26203.45597415  .00000609  00000-0  79169-4 0  9994","l2":"2 35684  98.1398 279.4776 0042703 205.5417 154.3687 14.83921264916592"},{"id":"35686","name":"APRIZESAT 3","type":"PAYLOAD","l1":"1 35686U 09041F   26203.34088258  .00000307  00000-0  32161-4 0  9990","l2":"2 35686  98.2106 358.2597 0060677 311.9174  47.6880 14.96319418921637"},{"id":"36037","name":"PROBA 2","type":"PAYLOAD","l1":"1 36037U 09059B   26203.31587936  .00000149  00000-0  45107-4 0  9992","l2":"2 36037  98.2464  26.1841 0013521 166.8392 193.3161 14.54875759886633"},{"id":"37792","name":"APRIZESAT 5","type":"PAYLOAD","l1":"1 37792U 11044E   26203.54250376  .00000589  00000-0  81787-4 0  9990","l2":"2 37792  98.2447 137.5871 0050768 248.3944 111.1855 14.81135656804022"},{"id":"37793","name":"APRIZESAT 6","type":"PAYLOAD","l1":"1 37793U 11044F   26203.31968863  .00000581  00000-0  89357-4 0  9996","l2":"2 37793  98.2329 114.5327 0042494 335.3434 147.2526 14.76964313802332"},{"id":"39159","name":"PROBA V","type":"PAYLOAD","l1":"1 39159U 13021A   26202.90999959  .00000055  00000-0  42036-4 0  9994","l2":"2 39159  98.3611 179.8069 0004985  44.0739 316.0837 14.23604343686053"},{"id":"39416","name":"APRIZESAT 7","type":"PAYLOAD","l1":"1 39416U 13066A   26203.30586063  .00000915  00000-0  95551-4 0  9997","l2":"2 39416  97.7724 156.0258 0037373  94.6844 265.8644 14.91631194686460"},{"id":"39425","name":"APRIZESAT 8","type":"PAYLOAD","l1":"1 39425U 13066K   26203.58759692  .00000606  00000-0  71438-4 0  9992","l2":"2 39425  97.8232 150.5657 0046123 167.5414 192.6955 14.87704611684935"},{"id":"40014","name":"BUGSAT 1","type":"PAYLOAD","l1":"1 40014U 14033E   26203.61794126  .00005545  00000-0  29020-3 0  9994","l2":"2 40014  98.0425 298.2486 0028782  61.7590 298.6541 15.15933365661204"},{"id":"40016","name":"SAUDISAT 4","type":"PAYLOAD","l1":"1 40016U 14033G   26203.35328594  .00000395  00000-0  58888-4 0  9992","l2":"2 40016  97.7627 348.2812 0043738 320.3670  39.4347 14.79580763651276"},{"id":"40018","name":"APRIZESAT 9","type":"PAYLOAD","l1":"1 40018U 14033J   26203.29799406  .00000480  00000-0  77628-4 0  9999","l2":"2 40018  97.9102 335.6466 0067494  87.5811 273.3123 14.74259030648730"},{"id":"40019","name":"APRIZESAT 10","type":"PAYLOAD","l1":"1 40019U 14033K   26203.29662844  .00000521  00000-0  89313-4 0  9995","l2":"2 40019  97.9688 329.4807 0079274 160.7576 199.6654 14.70917447647413"},{"id":"40076","name":"TDS 1","type":"PAYLOAD","l1":"1 40076U 14037H   26203.46190135  .00007761  00000-0  43438-3 0  9990","l2":"2 40076  98.3838 199.1875 0007439 137.8138 222.3665 15.13751238653569"},{"id":"42829","name":"TECHNOSAT","type":"PAYLOAD","l1":"1 42829U 17042E   26203.02066400  .00002023  00000-0  14586-3 0  9994","l2":"2 42829  97.4323 359.3647 0016805 340.5949  19.4636 15.05136522491942"},{"id":"42831","name":"FLYING LAPTOP","type":"PAYLOAD","l1":"1 42831U 17042G   26203.64479726  .00002663  00000-0  21046-3 0  9993","l2":"2 42831  97.4845 357.8522 0019245   8.7660 351.3897 15.01345106491777"},{"id":"43765","name":"HAWK-A","type":"PAYLOAD","l1":"1 43765U 18099H   26203.12815720  .00006941  00000-0  27591-3 0  9998","l2":"2 43765  97.3892 254.9126 0035371 159.8434 200.4210 15.25028457418424"},{"id":"43794","name":"HAWK-B","type":"PAYLOAD","l1":"1 43794U 18099AN  26203.58591747  .00006175  00000-0  26055-3 0  9993","l2":"2 43794  97.3944 254.7049 0032125 176.0437 184.1060 15.23176256418424"},{"id":"43799","name":"HAWK-C","type":"PAYLOAD","l1":"1 43799U 18099AT  26203.54847526  .00009158  00000-0  32389-3 0  9994","l2":"2 43799  97.3868 256.4163 0041004 158.0943 202.2061 15.28576233419314"},{"id":"46495","name":"SALSAT","type":"PAYLOAD","l1":"1 46495U 20068K   26203.46128258  .00007239  00000-0  24997-3 0  9998","l2":"2 46495  97.8868 208.6876 0009978 167.8214 192.3268 15.30243913320754"},{"id":"47502","name":"HAWK-2C","type":"PAYLOAD","l1":"1 47502U 21006CT  26203.55287972  .00006334  00000-0  18834-3 0  9998","l2":"2 47502  97.2262 247.1623 0008608  80.0904 280.1311 15.35053362304923"},{"id":"47505","name":"HAWK-2A","type":"PAYLOAD","l1":"1 47505U 21006CW  26203.55499399  .00008132  00000-0  24092-3 0  9990","l2":"2 47505  97.2304 247.8633 0008148  83.3724 276.8447 15.35084245304922"},{"id":"47508","name":"HAWK-2B","type":"PAYLOAD","l1":"1 47508U 21006CZ  26203.48272377  .00007472  00000-0  22066-3 0  9995","l2":"2 47508  97.2177 246.0686 0008705  82.1778 278.0454 15.35208398304915"},{"id":"48931","name":"HAWK-3B","type":"PAYLOAD","l1":"1 48931U 21059BE  26203.10198682  .00052342  00000-0  39476-3 0  9998","l2":"2 48931  97.6638  43.1873 0004977 174.9491 185.1823 15.72332127283334"},{"id":"48948","name":"HAWK-3C","type":"PAYLOAD","l1":"1 48948U 21059BX  26203.54716061  .00048755  00000-0  36730-3 0  9994","l2":"2 48948  97.6749  49.4213 0005414 172.9235 187.2106 15.72369513283407"},{"id":"48957","name":"HAWK-3A","type":"PAYLOAD","l1":"1 48957U 21059CG  26203.35611948  .00052619  00000-0  39628-3 0  9994","l2":"2 48957  97.6699  46.3886 0005230 176.1431 183.9873 15.72363250283375"},{"id":"52754","name":"HAWK-5C","type":"PAYLOAD","l1":"1 52754U 22057Y   26203.24789735  .00019311  00000-0  31663-3 0  9994","l2":"2 52754  97.6629   5.2138 0002356 310.3747  49.7299 15.52503024231782"},{"id":"52756","name":"HAWK-5B","type":"PAYLOAD","l1":"1 52756U 22057AA  26203.24773064  .00019353  00000-0  31733-3 0  9998","l2":"2 52756  97.6639   3.5686 0003022 296.9714  63.1229 15.52499057231781"}]}